{
  "norad_id": 55495,
  "name": "STARLINK-5100",
  "history": [
    {
      "epoch": "2026-03-28T22:00:01.999584Z",
      "apogee_km": 528.6900774851547,
      "perigee_km": 526.1966105345409,
      "latitude_deg": 18.307882919414887,
      "longitude_deg": -148.62281922667492,
      "height_km": 527.5508470840373,
      "semi_major_axis_km": 6905.580344009848,
      "eccentricity": 0.00018054,
      "inclination_deg": 43.0,
      "raan_deg": 208.3785,
      "arg_perigee_deg": 287.6811,
      "mean_anomaly_deg": 224.9903,
      "mean_motion_rev_day": 15.12873056
    },
    {
      "epoch": "2026-03-29T00:30:13.001184Z",
      "apogee_km": 528.9288344646102,
      "perigee_km": 525.0868118849967,
      "latitude_deg": 2.387589737070456e-05,
      "longitude_deg": 13.81489034124978,
      "height_km": 526.3525130748203,
      "semi_major_axis_km": 6905.144823174804,
      "eccentricity": 0.0002782,
      "inclination_deg": 43.0042,
      "raan_deg": 207.8021,
      "arg_perigee_deg": 283.086,
      "mean_anomaly_deg": 76.9676,
      "mean_motion_rev_day": 15.13016188
    }
  ]
}